[Satellite]
VERSION=1.1
NAME=RESURS-DK 1
NICKNAME=RESURS-DK 1
TLE1=1 29228U 06021A   20157.56500796  .00000047  00000-0  10818-4 0  9998
TLE2=2 29228  69.9355 218.2654 0002491 157.8794 202.2474 15.02542235770966
STATUS=0
